[{"OBJECT_NAME":"STARLINK-4779","OBJECT_ID":"2022-114AY","EPOCH":"2026-03-09T20:37:43.887936","MEAN_MOTION":15.08841957,"ECCENTRICITY":0.00013927,"INCLINATION":53.2169,"RA_OF_ASC_NODE":282.9252,"ARG_OF_PERICENTER":94.4587,"MEAN_ANOMALY":265.6564,"EPHEMERIS_TYPE":0,"CLASSIFICATION_TYPE":"U","NORAD_CAT_ID":53864,"ELEMENT_SET_NO":999,"REV_AT_EPOCH":19314,"BSTAR":4.0604848e-5,"MEAN_MOTION_DOT":3.58e-6,"MEAN_MOTION_DDOT":0},{"OBJECT_NAME":"OBJECT D","OBJECT_ID":"2025-292D","EPOCH":"2026-03-09T21:45:32.907168","MEAN_MOTION":15.05344615,"ECCENTRICITY":0.00138692,"INCLINATION":97.6365,"RA_OF_ASC_NODE":145.5948,"ARG_OF_PERICENTER":343.7291,"MEAN_ANOMALY":16.3488,"EPHEMERIS_TYPE":0,"CLASSIFICATION_TYPE":"U","NORAD_CAT_ID":66996,"ELEMENT_SET_NO":999,"REV_AT_EPOCH":1350,"BSTAR":0.00030674408,"MEAN_MOTION_DOT":4.34e-5,"MEAN_MOTION_DDOT":0}]
